LEMUR-2-ORZULAK         
1 43731U 18096N   21078.19271519  .00004437  00000-0  15196-3 0  9998
2 43731  97.3962 158.1004 0018108 228.2362 131.7332 15.30595793128444
LEMUR-2-KOBYSZCZE       
1 43732U 18096P   21078.44106946  .00003819  00000-0  13057-3 0  9995
2 43732  97.3972 158.5835 0018220 227.4271 132.5433 15.30744096128495
LEMUR-2-DULY            
1 43745U 18096AC  21077.71617594  .00003419  00000-0  11700-3 0  9993
2 43745  97.3963 157.8165 0018086 229.2846 130.6825 15.30793819128395
LEMUR-2-VLADIMIR        
1 43746U 18096AD  21077.85887760  .00003379  00000-0  11501-3 0  9997
2 43746  97.3963 158.0717 0018109 229.0972 130.8701 15.30974122128445
LEMUR-2-CHRISTINAHOLT   
1 43882U 18111G   21077.73853457  .00000774  00000-0  71752-4 0  9990
2 43882  97.6943 347.6134 0012568  49.2899 310.9412 14.97264689121545
LEMUR-2-TINYKEV         
1 43883U 18111H   21078.17083002  .00001192  00000-0  10743-3 0  9998
2 43883  97.6955 348.1329 0013273  50.5999 309.6396 14.97384655119618
LEMUR-2-REMY-COLTON     
1 43884U 18111J   21078.40292614  .00000706  00000-0  65394-4 0  9999
2 43884  97.6958 348.5280 0012460  46.6008 313.6249 14.97547910119668
LEMUR-2-GUSTAVO         
1 43885U 18111K   21077.75221818  .00001112  00000-0  10066-3 0  9992
2 43885  97.6955 347.8270 0012481  49.4743 310.7564 14.97369065121559
LEMUR-2-ZO              
1 43886U 18111L   21077.97288414  .00000999  00000-0  90650-4 0  9992
2 43886  97.6972 348.2033 0012846  47.9249 312.3063 14.97467025119598
LEMUR-2-NATALIEMURRAY   
1 43887U 18111M   21078.17662434  .00000791  00000-0  72611-4 0  9991
2 43887  97.6976 348.5615 0012939  45.7300 314.4981 14.97590732121631
LEMUR-2-SARAHBETTYBOO   
1 43888U 18111N   21077.81508662  .00000935  00000-0  84842-4 0  9993
2 43888  97.6971 348.3485 0012296  45.6174 314.6052 14.97619680121583
LEMUR-2-DAISY-HARPER    
1 43889U 18111P   21078.17414936  .00001068  00000-0  95929-4 0  9990
2 43889  97.6988 348.8019 0012865  44.8958 315.3303 14.97724539121636
LEMUR-2-JOHANLORAN      
1 44084U 19018G   21077.94094973  .00003172  00000-0  13014-3 0  9996
2 44084  97.3739 140.9723 0010953 284.1102  75.8919 15.24920268109213
LEMUR-2-BEAUDACIOUS     
1 44085U 19018H   21077.88577078  .00002883  00000-0  12035-3 0  9992
2 44085  97.3734 140.7309 0011086 286.0226  73.9790 15.24406206109197
LEMUR-2-ELHAM           
1 44086U 19018J   21077.92329482  .00002845  00000-0  11641-3 0  9992
2 44086  97.3751 141.2071 0011067 284.9520  75.0492 15.25094220109228
LEMUR-2-VICTOR-ANDREW   
1 44087U 19018K   21077.83754608  .00003082  00000-0  12546-3 0  9994
2 44087  97.3751 141.1740 0010904 285.8944  74.1092 15.25205465109210
LEMUR-2-LILLYJO         
1 44396U 19038L   21078.32109629  .00002314  00000-0  13130-3 0  9998
2 44396  97.5700  42.8718 0022358 258.3436 101.5286 15.13773753 94140
LEMUR-2-WANLI           
1 44402U 19038S   21077.82059664  .00001876  00000-0  10756-3 0  9996
2 44402  97.5703  42.3596 0022559 260.8573  99.0106 15.13645484 94076
LEMUR-2-MORAG           
1 44403U 19038T   21078.45139131  .00002646  00000-0  14912-3 0  9999
2 44403  97.5744  43.3229 0021154 261.7631  98.1201 15.13909435 94177
LEMUR-2-DUSTINTHEWIND   
1 44405U 19038V   21077.85684762  .00001742  00000-0  10028-3 0  9999
2 44405  97.5695  42.3807 0022369 259.9068  99.9640 15.13593150 94086
LEMUR-2-ALEX-MADDY      
1 44407U 19038X   21077.83490487  .00001604  00000-0  93882-4 0  9995
2 44407  97.5752  42.4810 0021485 265.7134  94.1642 15.13131966 94053
LEMUR-2-EJATTA          
1 44409U 19038Z   21078.36991952  .00002163  00000-0  12212-3 0  9997
2 44409  97.5691  43.0457 0022183 256.7012 103.1745 15.14029806 94170
LEMUR-2-GREGROBINSON    
1 44411U 19038AB  21077.88655040  .00001854  00000-0  10594-3 0  9998
2 44411  97.5753  42.7642 0021338 265.0769  94.8026 15.13802703 93752
LEMUR-2-YNDRD           
1 44413U 19038AD  21078.42022591  .00001402  00000-0  82578-4 0  9991
2 44413  97.5743  43.0238 0021401 263.2798  96.5997 15.13109685 94151
LEMUR-2-JPGSQUARED      
1 44855U 19089D   21078.26228195  .00000665  00000-0  59518-4 0  9995
2 44855  36.9656 274.4417 0004384 131.7002 228.4115 14.99470756 69612
LEMUR-2-HIMOMANDDAD     
1 44860U 19089J   21078.51260772  .00001533  00000-0  12946-3 0  9994
2 44860  36.9654 273.6549 0004717 124.8589 235.2596 14.99314632 69648
LEMUR-2-PAPPY           
1 44861U 19089K   21077.89836390  .00001388  00000-0  11772-3 0  9994
2 44861  36.9653 277.0749 0004712 121.4965 238.6237 14.99351722 69497
LEMUR-2-THEODOSIA       
1 44863U 19089M   21077.88262707  .00000701  00000-0  62588-4 0  9990
2 44863  36.9649 276.9431 0004727 126.0227 234.0953 14.99367710 69408
LEMUR-2-ETHANOAKES      
1 46298U 20061AC  21077.90679909  .00001560  00000-0  96290-4 0  9996
2 46298  97.4955 153.3928 0001509  60.6567 299.4814 15.11339999 29622
LEMUR-2-OSCARLATOR      
1 46299U 20061AD  21077.97377246  .00001528  00000-0  94477-4 0  9992
2 46299  97.4957 153.4631 0001429  64.6523 295.4855 15.11318717 29664
LEMUR-2-SCHMIDTFALL     
1 46315U 20061AV  21077.85932179  .00001504  00000-0  92004-4 0  9998
2 46315  97.4961 153.4666 0000898 338.9795  21.1398 15.11723102 29690
LEMUR-2-DJUPROERA       
1 46316U 20061AW  21078.18583405  .00001686  00000-0  10255-3 0  9998
2 46316  97.4955 153.7868 0001029 330.0600  30.0571 15.11775881 29745
LEMUR-2-SQUAREJAWS      
1 46317U 20061AX  21077.72302078  .00001706  00000-0  10380-3 0  9995
2 46317  97.4959 153.3349 0000948 332.8874  27.2307 15.11752295 29684
LEMUR-2-URSA-AVION      
1 46318U 20061AY  21077.91792972  .00001558  00000-0  95030-4 0  9994
2 46318  97.4957 153.5340 0000974 319.2082  40.9075 15.11788554 29710
LEMUR-2-SLICERS         
1 46500U 20068Q   21077.77663772  .00001209  00000-0  95234-4 0  9992
2 46500  97.6804  15.5850 0014255  34.0612 326.1526 15.02610890 25642
LEMUR-2-DAYWZAGOODDAY   
1 46501U 20068R   21077.78508092  .00001379  00000-0  10798-3 0  9996
2 46501  97.6825  15.5797 0015072  34.8076 325.4132 15.02589931 25631
LEMUR-2-SUSURRUS        
1 46502U 20068S   21077.78844763  .00000468  00000-0  39683-4 0  9998
2 46502  97.6840  15.5708 0014645  39.0692 321.1588 15.02620495 25647
LEMUR-2-NICHOL          
1 46503U 20068T   21077.86950410  .00001298  00000-0  10226-3 0  9998
2 46503  97.6842  15.6114 0015586  47.6846 312.5669 15.02444733 25657
LEMUR-2-OZARAK          
1 46908U 20081D   21077.93917324  .00001285  00000-0  11013-3 0  9998
2 46908  36.9044  41.9575 0008185 321.5096  38.5075 14.99050764 19748
LEMUR-2-JINDRA          
1 46909U 20081E   21077.93290167  .00001450  00000-0  12322-3 0  9996
2 46909  36.9046  41.9098 0008262 322.5212  37.4979 14.99138852 19755
LEMUR-2-WALLACE         
1 46910U 20081F   21078.26292260  .00001301  00000-0  11116-3 0  9996
2 46910  36.9041  39.9137 0008252 323.4832  36.5346 14.99164872 19793
LEMUR-2-JEREMIAH        
1 46911U 20081G   21078.25856991  .00001259  00000-0  10763-3 0  9992
2 46911  36.9051  39.8822 0008166 326.0115  34.0101 14.99223154 19805
LEMUR-2-BAXTER-OLIVER   
1 46925U 98067RV  21077.95879209  .00013616  00000-0  20186-3 0  9999
2 46925  51.6433  65.3244 0002143 115.1386 244.9827 15.55552776 20768
LEMUR-2-DJARA           
1 46926U 98067RW  21077.45881440  .00013828  00000-0  20760-3 0  9998
2 46926  51.6428  67.9831 0002082  99.3865 260.7361 15.55192177 20708
LEMUR-2-NEVA            
1 47450U 21006AP  21077.84983876  .00001589  00000-0  94111-4 0  9992
2 47450  97.5039 140.6839 0013281  60.7850 299.4707 15.12790716  8350
LEMUR-2-SAOIRSEDH5GUO   
1 47453U 21006AS  21078.38990503  .00001565  00000-0  93541-4 0  9990
2 47453  97.5072 141.2164 0011943  60.8729 299.3696 15.12480592  8430
LEMUR-2-NALLYWACKER     
1 47457U 21006AW  21077.91916254  .00001799  00000-0  10628-3 0  9996
2 47457  97.5041 140.7506 0012906  60.8743 299.3778 15.12702660  8366
LEMUR-2-MANGO1          
1 47493U 21006CJ  21077.92462212  .00001422  00000-0  85205-4 0  9994
2 47493  97.4986 140.6944 0012326  62.8564 297.3922 15.12541916  8361
LEMUR-2-RUAIRI-EILIDH   
1 47511U 21006DC  21078.14314799  .00001243  00000-0  76130-4 0  9994
2 47511  97.4988 140.8638 0009903  65.4859 294.7403 15.11968494  8390
LEMUR-2-JENNIFERSONG    
1 47525U 21006DR  21077.71916458  .00001610  00000-0  95411-4 0  9992
2 47525  97.5003 140.5228 0013129  61.7548 298.5006 15.12741875  8333
LEMUR-2-CHANTAL         
1 47529U 21006DV  21078.08215782  .00001287  00000-0  79058-4 0  9998
2 47529  97.4997 140.8003 0009279  66.4592 293.7612 15.11817885  9340
LEMUR-2-NOOBNOOB        
1 47538U 21006DY  21077.92030972  .00001415  00000-0  84493-4 0  9998
2 47538  97.5057 140.7579 0012799  61.0781 299.1732 15.12662941  8363
